ONEWEB-0627             
1 55168U 23004AE  25319.68138495  .00000061  00000+0  12434-3 0  9991
2 55168  87.9127  48.3379 0001161  99.5666 260.5596 13.17649035139460
ONEWEB-0628             
1 55169U 23004AF  25319.63502047 -.00000383  00000+0 -11003-2 0  9994
2 55169  87.8971  33.0733 0001175 117.8166 242.3082 13.12443533140028
ONEWEB-0629             
1 55170U 23004AG  25319.50505471  .00000051  00000+0  98849-4 0  9991
2 55170  87.9131  48.3696 0001635 113.4178 246.7126 13.17650694139446
ONEWEB-0631             
1 55171U 23004AH  25319.58465187  .00000151  00000+0  34951-3 0  9993
2 55171  87.9215  17.8572 0001802  80.5667 279.5669 13.18689520141526
ONEWEB-0709             
1 55172U 23004AJ  25319.72598206  .00000051  00000+0  10671-3 0  9991
2 55172  87.8862  63.5955 0002253  82.4959 277.6425 13.11418654137898
ONEWEB-0710             
1 55173U 23004AK  25319.67125991  .00000010  00000+0 -81585-5 0  9993
2 55173  87.9131  48.3311 0001547 100.9969 259.1337 13.17651647139467
ONEWEB-0711             
1 55174U 23004AL  25319.69714868 -.00000370  00000+0 -10796-2 0  9996
2 55174  87.8874  63.5733 0000862 102.7952 257.3273 13.11414959137856
ONEWEB-0713             
1 55175U 23004AM  25319.56319428 -.00000542  00000+0 -15640-2 0  9990
2 55175  87.8864  63.6034 0001380 100.5606 259.5678 13.11418628137826
ONEWEB-0715             
1 55176U 23004AN  25319.71070499 -.00000707  00000+0 -20311-2 0  9994
2 55176  87.8865  63.5741 0001850  79.7327 280.4010 13.11417302137888
ONEWEB-0716             
1 55177U 23004AP  25319.66451428 -.00000043  00000+0 -14335-3 0  9997
2 55177  87.9131  48.3320 0001949 106.4666 253.6680 13.17650806139468
ONEWEB-0717             
1 55178U 23004AQ  25319.72356881  .00000033  00000+0  51707-4 0  9994
2 55178  87.9141  48.2888 0001040  90.0926 270.0324 13.17651885139520
ONEWEB-0719             
1 55179U 23004AR  25319.50587985  .00000053  00000+0  10421-3 0  9991
2 55179  87.9143  48.3148 0001730 110.2929 249.8388 13.17652714139444
ONEWEB-0530             
1 55796U 23029A   25319.45631522  .00000013  00000+0 -93465-6 0  9993
2 55796  87.9180 317.1103 0001329  91.2341 268.8945 13.20772331132937
ONEWEB-0534             
1 55797U 23029B   25319.44369211  .00000000  00000+0 -31713-4 0  9998
2 55797  87.9175 317.1138 0001912  93.5569 266.5783 13.20771771132937
ONEWEB-0556             
1 55798U 23029C   25319.44998027 -.00003670  00000+0 -90601-2 0  9998
2 55798  87.9180 317.1114 0002014 116.1407 243.9934 13.20789569132936
ONEWEB-0562             
1 55799U 23029D   25319.74037534  .00000018  00000+0  11398-4 0  9998
2 55799  87.9175 317.0369 0001117 113.1472 246.9779 13.20774003132975
ONEWEB-0563             
1 55800U 23029E   25319.50682264 -.00000113  00000+0 -31085-3 0  9993
2 55800  87.9184 317.1097 0002076  96.8867 263.2503 13.20772030132938
