[{"OBJECT_NAME":"ONEWEB-0627","OBJECT_ID":"2023-004AE","EPOCH":"2025-11-15T16:21:11.659680","MEAN_MOTION":13.17649035,"ECCENTRICITY":0.0001161,"INCLINATION":87.9127,"RA_OF_ASC_NODE":48.3379,"ARG_OF_PERICENTER":99.5666,"MEAN_ANOMALY":260.5596,"EPHEMERIS_TYPE":0,"CLASSIFICATION_TYPE":"U","NORAD_CAT_ID":55168,"ELEMENT_SET_NO":999,"REV_AT_EPOCH":13946,"BSTAR":0.00012434,"MEAN_MOTION_DOT":6.1e-7,"MEAN_MOTION_DDOT":0},{"OBJECT_NAME":"ONEWEB-0628","OBJECT_ID":"2023-004AF","EPOCH":"2025-11-15T15:14:25.768608","MEAN_MOTION":13.12443533,"ECCENTRICITY":0.0001175,"INCLINATION":87.8971,"RA_OF_ASC_NODE":33.0733,"ARG_OF_PERICENTER":117.8166,"MEAN_ANOMALY":242.3082,"EPHEMERIS_TYPE":0,"CLASSIFICATION_TYPE":"U","NORAD_CAT_ID":55169,"ELEMENT_SET_NO":999,"REV_AT_EPOCH":14002,"BSTAR":-0.0011003,"MEAN_MOTION_DOT":-3.83e-6,"MEAN_MOTION_DDOT":0},{"OBJECT_NAME":"ONEWEB-0629","OBJECT_ID":"2023-004AG","EPOCH":"2025-11-15T12:07:16.726944","MEAN_MOTION":13.17650694,"ECCENTRICITY":0.0001635,"INCLINATION":87.9131,"RA_OF_ASC_NODE":48.3696,"ARG_OF_PERICENTER":113.4178,"MEAN_ANOMALY":246.7126,"EPHEMERIS_TYPE":0,"CLASSIFICATION_TYPE":"U","NORAD_CAT_ID":55170,"ELEMENT_SET_NO":999,"REV_AT_EPOCH":13944,"BSTAR":9.8849e-5,"MEAN_MOTION_DOT":5.1e-7,"MEAN_MOTION_DDOT":0},{"OBJECT_NAME":"ONEWEB-0631","OBJECT_ID":"2023-004AH","EPOCH":"2025-11-15T14:01:53.921568","MEAN_MOTION":13.1868952,"ECCENTRICITY":0.0001802,"INCLINATION":87.9215,"RA_OF_ASC_NODE":17.8572,"ARG_OF_PERICENTER":80.5667,"MEAN_ANOMALY":279.5669,"EPHEMERIS_TYPE":0,"CLASSIFICATION_TYPE":"U","NORAD_CAT_ID":55171,"ELEMENT_SET_NO":999,"REV_AT_EPOCH":14152,"BSTAR":0.00034951,"MEAN_MOTION_DOT":1.51e-6,"MEAN_MOTION_DDOT":0},{"OBJECT_NAME":"ONEWEB-0709","OBJECT_ID":"2023-004AJ","EPOCH":"2025-11-15T17:25:24.849984","MEAN_MOTION":13.11418654,"ECCENTRICITY":0.0002253,"INCLINATION":87.8862,"RA_OF_ASC_NODE":63.5955,"ARG_OF_PERICENTER":82.4959,"MEAN_ANOMALY":277.6425,"EPHEMERIS_TYPE":0,"CLASSIFICATION_TYPE":"U","NORAD_CAT_ID":55172,"ELEMENT_SET_NO":999,"REV_AT_EPOCH":13789,"BSTAR":0.00010671,"MEAN_MOTION_DOT":5.1e-7,"MEAN_MOTION_DDOT":0},{"OBJECT_NAME":"ONEWEB-0710","OBJECT_ID":"2023-004AK","EPOCH":"2025-11-15T16:06:36.856224","MEAN_MOTION":13.17651647,"ECCENTRICITY":0.0001547,"INCLINATION":87.9131,"RA_OF_ASC_NODE":48.3311,"ARG_OF_PERICENTER":100.9969,"MEAN_ANOMALY":259.1337,"EPHEMERIS_TYPE":0,"CLASSIFICATION_TYPE":"U","NORAD_CAT_ID":55173,"ELEMENT_SET_NO":999,"REV_AT_EPOCH":13946,"BSTAR":-8.1585e-6,"MEAN_MOTION_DOT":1.0e-7,"MEAN_MOTION_DDOT":0},{"OBJECT_NAME":"ONEWEB-0711","OBJECT_ID":"2023-004AL","EPOCH":"2025-11-15T16:43:53.645952","MEAN_MOTION":13.11414959,"ECCENTRICITY":8.62e-5,"INCLINATION":87.8874,"RA_OF_ASC_NODE":63.5733,"ARG_OF_PERICENTER":102.7952,"MEAN_ANOMALY":257.3273,"EPHEMERIS_TYPE":0,"CLASSIFICATION_TYPE":"U","NORAD_CAT_ID":55174,"ELEMENT_SET_NO":999,"REV_AT_EPOCH":13785,"BSTAR":-0.0010796,"MEAN_MOTION_DOT":-3.7e-6,"MEAN_MOTION_DDOT":0},{"OBJECT_NAME":"ONEWEB-0713","OBJECT_ID":"2023-004AM","EPOCH":"2025-11-15T13:30:59.985792","MEAN_MOTION":13.11418628,"ECCENTRICITY":0.000138,"INCLINATION":87.8864,"RA_OF_ASC_NODE":63.6034,"ARG_OF_PERICENTER":100.5606,"MEAN_ANOMALY":259.5678,"EPHEMERIS_TYPE":0,"CLASSIFICATION_TYPE":"U","NORAD_CAT_ID":55175,"ELEMENT_SET_NO":999,"REV_AT_EPOCH":13782,"BSTAR":-0.001564,"MEAN_MOTION_DOT":-5.42e-6,"MEAN_MOTION_DDOT":0},{"OBJECT_NAME":"ONEWEB-0715","OBJECT_ID":"2023-004AN","EPOCH":"2025-11-15T17:03:24.911136","MEAN_MOTION":13.11417302,"ECCENTRICITY":0.000185,"INCLINATION":87.8865,"RA_OF_ASC_NODE":63.5741,"ARG_OF_PERICENTER":79.7327,"MEAN_ANOMALY":280.401,"EPHEMERIS_TYPE":0,"CLASSIFICATION_TYPE":"U","NORAD_CAT_ID":55176,"ELEMENT_SET_NO":999,"REV_AT_EPOCH":13788,"BSTAR":-0.0020311,"MEAN_MOTION_DOT":-7.07e-6,"MEAN_MOTION_DDOT":0},{"OBJECT_NAME":"ONEWEB-0716","OBJECT_ID":"2023-004AP","EPOCH":"2025-11-15T15:56:54.033792","MEAN_MOTION":13.17650806,"ECCENTRICITY":0.0001949,"INCLINATION":87.9131,"RA_OF_ASC_NODE":48.332,"ARG_OF_PERICENTER":106.4666,"MEAN_ANOMALY":253.668,"EPHEMERIS_TYPE":0,"CLASSIFICATION_TYPE":"U","NORAD_CAT_ID":55177,"ELEMENT_SET_NO":999,"REV_AT_EPOCH":13946,"BSTAR":-0.00014335,"MEAN_MOTION_DOT":-4.3e-7,"MEAN_MOTION_DDOT":0},{"OBJECT_NAME":"ONEWEB-0717","OBJECT_ID":"2023-004AQ","EPOCH":"2025-11-15T17:21:56.345184","MEAN_MOTION":13.17651885,"ECCENTRICITY":0.000104,"INCLINATION":87.9141,"RA_OF_ASC_NODE":48.2888,"ARG_OF_PERICENTER":90.0926,"MEAN_ANOMALY":270.0324,"EPHEMERIS_TYPE":0,"CLASSIFICATION_TYPE":"U","NORAD_CAT_ID":55178,"ELEMENT_SET_NO":999,"REV_AT_EPOCH":13952,"BSTAR":5.1707e-5,"MEAN_MOTION_DOT":3.3e-7,"MEAN_MOTION_DDOT":0},{"OBJECT_NAME":"ONEWEB-0719","OBJECT_ID":"2023-004AR","EPOCH":"2025-11-15T12:08:28.019040","MEAN_MOTION":13.17652714,"ECCENTRICITY":0.000173,"INCLINATION":87.9143,"RA_OF_ASC_NODE":48.3148,"ARG_OF_PERICENTER":110.2929,"MEAN_ANOMALY":249.8388,"EPHEMERIS_TYPE":0,"CLASSIFICATION_TYPE":"U","NORAD_CAT_ID":55179,"ELEMENT_SET_NO":999,"REV_AT_EPOCH":13944,"BSTAR":0.00010421,"MEAN_MOTION_DOT":5.3e-7,"MEAN_MOTION_DDOT":0},{"OBJECT_NAME":"ONEWEB-0530","OBJECT_ID":"2023-029A","EPOCH":"2025-11-15T10:57:05.635008","MEAN_MOTION":13.20772331,"ECCENTRICITY":0.0001329,"INCLINATION":87.918,"RA_OF_ASC_NODE":317.1103,"ARG_OF_PERICENTER":91.2341,"MEAN_ANOMALY":268.8945,"EPHEMERIS_TYPE":0,"CLASSIFICATION_TYPE":"U","NORAD_CAT_ID":55796,"ELEMENT_SET_NO":999,"REV_AT_EPOCH":13293,"BSTAR":-9.3465e-7,"MEAN_MOTION_DOT":1.3e-7,"MEAN_MOTION_DDOT":0},{"OBJECT_NAME":"ONEWEB-0534","OBJECT_ID":"2023-029B","EPOCH":"2025-11-15T10:38:54.998304","MEAN_MOTION":13.20771771,"ECCENTRICITY":0.0001912,"INCLINATION":87.9175,"RA_OF_ASC_NODE":317.1138,"ARG_OF_PERICENTER":93.5569,"MEAN_ANOMALY":266.5783,"EPHEMERIS_TYPE":0,"CLASSIFICATION_TYPE":"U","NORAD_CAT_ID":55797,"ELEMENT_SET_NO":999,"REV_AT_EPOCH":13293,"BSTAR":-3.1713e-5,"MEAN_MOTION_DOT":0,"MEAN_MOTION_DDOT":0},{"OBJECT_NAME":"ONEWEB-0556","OBJECT_ID":"2023-029C","EPOCH":"2025-11-15T10:47:58.295328","MEAN_MOTION":13.20789569,"ECCENTRICITY":0.0002014,"INCLINATION":87.918,"RA_OF_ASC_NODE":317.1114,"ARG_OF_PERICENTER":116.1407,"MEAN_ANOMALY":243.9934,"EPHEMERIS_TYPE":0,"CLASSIFICATION_TYPE":"U","NORAD_CAT_ID":55798,"ELEMENT_SET_NO":999,"REV_AT_EPOCH":13293,"BSTAR":-0.0090601,"MEAN_MOTION_DOT":-3.67e-5,"MEAN_MOTION_DDOT":0},{"OBJECT_NAME":"ONEWEB-0562","OBJECT_ID":"2023-029D","EPOCH":"2025-11-15T17:46:08.429376","MEAN_MOTION":13.20774003,"ECCENTRICITY":0.0001117,"INCLINATION":87.9175,"RA_OF_ASC_NODE":317.0369,"ARG_OF_PERICENTER":113.1472,"MEAN_ANOMALY":246.9779,"EPHEMERIS_TYPE":0,"CLASSIFICATION_TYPE":"U","NORAD_CAT_ID":55799,"ELEMENT_SET_NO":999,"REV_AT_EPOCH":13297,"BSTAR":1.1398e-5,"MEAN_MOTION_DOT":1.8e-7,"MEAN_MOTION_DDOT":0},{"OBJECT_NAME":"ONEWEB-0563","OBJECT_ID":"2023-029E","EPOCH":"2025-11-15T12:09:49.476096","MEAN_MOTION":13.2077203,"ECCENTRICITY":0.0002076,"INCLINATION":87.9184,"RA_OF_ASC_NODE":317.1097,"ARG_OF_PERICENTER":96.8867,"MEAN_ANOMALY":263.2503,"EPHEMERIS_TYPE":0,"CLASSIFICATION_TYPE":"U","NORAD_CAT_ID":55800,"ELEMENT_SET_NO":999,"REV_AT_EPOCH":13293,"BSTAR":-0.00031085,"MEAN_MOTION_DOT":-1.13e-6,"MEAN_MOTION_DDOT":0}]
